[{"OBJECT_NAME":"SBSS (USA 216)","OBJECT_ID":"2010-048A","EPOCH":"2026-03-09T21:16:11.917056","MEAN_MOTION":15.1572421,"ECCENTRICITY":0.0082264,"INCLINATION":97.7474,"RA_OF_ASC_NODE":312.3885,"ARG_OF_PERICENTER":184.8326,"MEAN_ANOMALY":306.5835,"EPHEMERIS_TYPE":0,"CLASSIFICATION_TYPE":"U","NORAD_CAT_ID":37168,"ELEMENT_SET_NO":999,"REV_AT_EPOCH":83742,"BSTAR":0.00024191,"MEAN_MOTION_DOT":4.946e-5,"MEAN_MOTION_DDOT":0},{"OBJECT_NAME":"STARLINK-33545","OBJECT_ID":"2024-220P","EPOCH":"2026-03-09T10:12:03.261600","MEAN_MOTION":15.27607917,"ECCENTRICITY":0.00031045,"INCLINATION":43.0013,"RA_OF_ASC_NODE":206.7886,"ARG_OF_PERICENTER":295.1029,"MEAN_ANOMALY":64.9501,"EPHEMERIS_TYPE":0,"CLASSIFICATION_TYPE":"U","NORAD_CAT_ID":62101,"ELEMENT_SET_NO":999,"REV_AT_EPOCH":7298,"BSTAR":0.0014409794,"MEAN_MOTION_DOT":0.00039641,"MEAN_MOTION_DDOT":0}]
