SBSS (USA 216)          
1 37168U 10048A   26068.88624904  .00004946  00000+0  24191-3 0  9993
2 37168  97.7474 312.3885 0082264 184.8326 306.5835 15.15724210837421
STARLINK-33545          
1 62101U 24220P   26068.42503775  .00039641  00000+0  14410-2 0  9999
2 62101  43.0013 206.7886 0003104 295.1029  64.9501 15.27607917 72982
